[{"OBJECT_NAME":"IPERDRONE.0","OBJECT_ID":"2024-149BE","EPOCH":"2026-03-09T17:09:53.298144","MEAN_MOTION":15.54688406,"ECCENTRICITY":0.00029889,"INCLINATION":97.3808,"RA_OF_ASC_NODE":157.9725,"ARG_OF_PERICENTER":236.7753,"MEAN_ANOMALY":123.3215,"EPHEMERIS_TYPE":0,"CLASSIFICATION_TYPE":"U","NORAD_CAT_ID":60520,"ELEMENT_SET_NO":999,"REV_AT_EPOCH":8740,"BSTAR":0.00083831703,"MEAN_MOTION_DOT":0.00055777,"MEAN_MOTION_DDOT":0},{"OBJECT_NAME":"STARLINK-36439","OBJECT_ID":"2026-020H","EPOCH":"2026-03-09T22:00:01.999584","MEAN_MOTION":15.67069217,"ECCENTRICITY":0.00015384,"INCLINATION":42.9996,"RA_OF_ASC_NODE":140.7811,"ARG_OF_PERICENTER":271.2276,"MEAN_ANOMALY":33.9897,"EPHEMERIS_TYPE":0,"CLASSIFICATION_TYPE":"U","NORAD_CAT_ID":67624,"ELEMENT_SET_NO":999,"REV_AT_EPOCH":604,"BSTAR":-0.020229594,"MEAN_MOTION_DOT":-0.01960974,"MEAN_MOTION_DDOT":0}]
